[{"OBJECT_NAME":"HULIANWANG DIGUI-21","OBJECT_ID":"2025-086B","EPOCH":"2026-03-09T21:54:40.925952","MEAN_MOTION":13.24422255,"ECCENTRICITY":0.00017235,"INCLINATION":86.5151,"RA_OF_ASC_NODE":346.5947,"ARG_OF_PERICENTER":94.6569,"MEAN_ANOMALY":265.4762,"EPHEMERIS_TYPE":0,"CLASSIFICATION_TYPE":"U","NORAD_CAT_ID":63688,"ELEMENT_SET_NO":999,"REV_AT_EPOCH":4172,"BSTAR":6.2460039e-5,"MEAN_MOTION_DOT":4.1e-7,"MEAN_MOTION_DDOT":0},{"OBJECT_NAME":"FENGYUN 1C DEB","OBJECT_ID":"1999-025EEZ","EPOCH":"2026-03-03T18:31:33.735936","MEAN_MOTION":13.59537,"ECCENTRICITY":0.02903317,"INCLINATION":103.2911,"RA_OF_ASC_NODE":271.1081,"ARG_OF_PERICENTER":66.3303,"MEAN_ANOMALY":296.8007,"EPHEMERIS_TYPE":0,"CLASSIFICATION_TYPE":"U","NORAD_CAT_ID":37065,"ELEMENT_SET_NO":999,"REV_AT_EPOCH":23303,"BSTAR":0.0018965573,"MEAN_MOTION_DOT":1.784e-5,"MEAN_MOTION_DDOT":0}]
